start=new Date('2022-08-17T00:00:00.000Z').valueOf();
sats=[{"PERIAPSIS":"538.722","DECAY_DATE":null,"MEAN_MOTION":"15.08816658","MEAN_MOTION_DOT":"0.00046578","TLE_LINE2":"2 51728  53.2182  38.5070 0001583  57.0671 296.3561 15.08816658  1306","SITE":"AFETR","FILE":"3538178","APOAPSIS":"540.912","TLE_LINE1":"1 51728U 22016Q   22228.91667824  .00046578  00000-0  29273-2 0  9998","RCS_SIZE":"LARGE","GP_ID":"210368144","NORAD_CAT_ID":"51728","MEAN_ELEMENT_THEORY":"SGP4","PERIOD":"95.439","ARG_OF_PERICENTER":"57.0671","CLASSIFICATION_TYPE":"U","INCLINATION":"53.2182","RA_OF_ASC_NODE":"38.5070","TIME_SYSTEM":"UTC","OBJECT_TYPE":"PAYLOAD","CENTER_NAME":"EARTH","REV_AT_EPOCH":"130","MEAN_MOTION_DDOT":"0.0000000000000","OBJECT_NAME":"STARLINK-3448","SEMIMAJOR_AXIS":"6917.952","REF_FRAME":"TEME","EPOCH":"2022-08-16T22:00:00.999936","MEAN_ANOMALY":"296.3561","EPHEMERIS_TYPE":"0","COUNTRY_CODE":"US","OBJECT_ID":"2022-016Q","ELEMENT_SET_NO":"999","ECCENTRICITY":"0.00015830","LAUNCH_DATE":"2022-02-21","BSTAR":"0.00292730000000"},{"ELEMENT_SET_NO":"999","COUNTRY_CODE":"US","OBJECT_ID":"2022-016R","EPHEMERIS_TYPE":"0","SEMIMAJOR_AXIS":"6917.948","MEAN_ANOMALY":"240.3807","EPOCH":"2022-08-16T22:00:00.999936","REF_FRAME":"TEME","BSTAR":"0.00312130000000","LAUNCH_DATE":"2022-02-21","ECCENTRICITY":"0.00015600","INCLINATION":"53.2177","RA_OF_ASC_NODE":"38.5064","OBJECT_NAME":"STARLINK-3523","MEAN_MOTION_DDOT":"0.0000000000000","REV_AT_EPOCH":"130","CENTER_NAME":"EARTH","OBJECT_TYPE":"PAYLOAD","TIME_SYSTEM":"UTC","GP_ID":"210369395","RCS_SIZE":"LARGE","TLE_LINE1":"1 51729U 22016R   22228.91667824  .00049708  00000-0  31213-2 0  9994","CLASSIFICATION_TYPE":"U","ARG_OF_PERICENTER":"53.0326","PERIOD":"95.439","MEAN_ELEMENT_THEORY":"SGP4","NORAD_CAT_ID":"51729","MEAN_MOTION_DOT":"0.00049708","MEAN_MOTION":"15.08817772","DECAY_DATE":null,"PERIAPSIS":"538.734","APOAPSIS":"540.893","FILE":"3538178","SITE":"AFETR","TLE_LINE2":"2 51729  53.2177  38.5064 0001560  53.0326 240.3807 15.08817772  1302"},{"BSTAR":"0.00290250000000","LAUNCH_DATE":"2022-02-21","ECCENTRICITY":"0.00014700","COUNTRY_CODE":"US","OBJECT_ID":"2022-016S","ELEMENT_SET_NO":"999","EPHEMERIS_TYPE":"0","EPOCH":"2022-08-16T22:00:00.999936","SEMIMAJOR_AXIS":"6917.937","MEAN_ANOMALY":"342.0062","REF_FRAME":"TEME","OBJECT_NAME":"STARLINK-3530","MEAN_MOTION_DDOT":"0.0000000000000","OBJECT_TYPE":"PAYLOAD","CENTER_NAME":"EARTH","REV_AT_EPOCH":"130","TIME_SYSTEM":"UTC","RA_OF_ASC_NODE":"38.5189","INCLINATION":"53.2189","ARG_OF_PERICENTER":"51.4293","CLASSIFICATION_TYPE":"U","PERIOD":"95.439","MEAN_ELEMENT_THEORY":"SGP4","NORAD_CAT_ID":"51730","RCS_SIZE":"LARGE","GP_ID":"210369146","TLE_LINE1":"1 51730U 22016S   22228.91667824  .00046185  00000-0  29025-2 0  9990","APOAPSIS":"540.818","FILE":"3538178","SITE":"AFETR","TLE_LINE2":"2 51730  53.2189  38.5189 0001470  51.4293 342.0062 15.08821635  1306","MEAN_MOTION":"15.08821635","MEAN_MOTION_DOT":"0.00046185","DECAY_DATE":null,"PERIAPSIS":"538.785"},{"BSTAR":"0.00124290000000","LAUNCH_DATE":"2022-02-21","ECCENTRICITY":"0.00014370","COUNTRY_CODE":"US","ELEMENT_SET_NO":"999","OBJECT_ID":"2022-016T","EPHEMERIS_TYPE":"0","SEMIMAJOR_AXIS":"6917.915","REF_FRAME":"TEME","EPOCH":"2022-08-16T22:00:00.999936","MEAN_ANOMALY":"276.2569","OBJECT_NAME":"STARLINK-3514","MEAN_MOTION_DDOT":"0.0000000000000","OBJECT_TYPE":"PAYLOAD","CENTER_NAME":"EARTH","REV_AT_EPOCH":"130","TIME_SYSTEM":"UTC","INCLINATION":"53.2182","RA_OF_ASC_NODE":"38.5100","ARG_OF_PERICENTER":"57.1669","CLASSIFICATION_TYPE":"U","PERIOD":"95.438","NORAD_CAT_ID":"51731","MEAN_ELEMENT_THEORY":"SGP4","RCS_SIZE":"LARGE","GP_ID":"210367894","TLE_LINE1":"1 51731U 22016T   22228.91667824  .00019542  00000-0  12429-2 0  9998","APOAPSIS":"540.775","FILE":"3538178","SITE":"AFETR","TLE_LINE2":"2 51731  53.2182  38.5100 0001437  57.1669 276.2569 15.08828526  1302","MEAN_MOTION":"15.08828526","MEAN_MOTION_DOT":"0.00019542","DECAY_DATE":null,"PERIAPSIS":"538.786"},{"OBJECT_NAME":"STARLINK-3518","MEAN_MOTION_DDOT":"0.0000000000000","CENTER_NAME":"EARTH","REV_AT_EPOCH":"130","OBJECT_TYPE":"PAYLOAD","TIME_SYSTEM":"UTC","INCLINATION":"53.2183","RA_OF_ASC_NODE":"38.5258","BSTAR":"0.00168270000000","LAUNCH_DATE":"2022-02-21","ECCENTRICITY":"0.00015250","ELEMENT_SET_NO":"999","COUNTRY_CODE":"US","OBJECT_ID":"2022-016U","EPHEMERIS_TYPE":"0","MEAN_ANOMALY":"356.4754","SEMIMAJOR_AXIS":"6917.887","REF_FRAME":"TEME","EPOCH":"2022-08-16T22:00:00.999936","APOAPSIS":"540.807","FILE":"3538178","SITE":"AFETR","TLE_LINE2":"2 51732  53.2183  38.5258 0001525  56.9385 356.4754 15.08837833  1306","MEAN_MOTION_DOT":"0.00026592","MEAN_MOTION":"15.08837833","DECAY_DATE":null,"PERIAPSIS":"538.697","CLASSIFICATION_TYPE":"U","ARG_OF_PERICENTER":"56.9385","PERIOD":"95.438","MEAN_ELEMENT_THEORY":"SGP4","NORAD_CAT_ID":"51732","GP_ID":"210368644","RCS_SIZE":"LARGE","TLE_LINE1":"1 51732U 22016U   22228.91667824  .00026592  00000-0  16827-2 0  9998"},{"PERIAPSIS":"538.657","DECAY_DATE":null,"MEAN_MOTION":"15.08837421","MEAN_MOTION_DOT":"-0.00001172","TLE_LINE2":"2 51733  53.2185  38.5078 0001584  52.1822 321.2569 15.08837421  1305","SITE":"AFETR","FILE":"3538178","APOAPSIS":"540.849","TLE_LINE1":"1 51733U 22016V   22228.91667824 -.00001172  00000-0 -55533-4 0  9997","RCS_SIZE":"LARGE","GP_ID":"210368896","MEAN_ELEMENT_THEORY":"SGP4","NORAD_CAT_ID":"51733","PERIOD":"95.438","ARG_OF_PERICENTER":"52.1822","CLASSIFICATION_TYPE":"U","INCLINATION":"53.2185","RA_OF_ASC_NODE":"38.5078","TIME_SYSTEM":"UTC","OBJECT_TYPE":"PAYLOAD","REV_AT_EPOCH":"130","CENTER_NAME":"EARTH","MEAN_MOTION_DDOT":"0.0000000000000","OBJECT_NAME":"STARLINK-3525","SEMIMAJOR_AXIS":"6917.888","MEAN_ANOMALY":"321.2569","EPOCH":"2022-08-16T22:00:00.999936","REF_FRAME":"TEME","EPHEMERIS_TYPE":"0","OBJECT_ID":"2022-016V","COUNTRY_CODE":"US","ELEMENT_SET_NO":"999","ECCENTRICITY":"0.00015840","LAUNCH_DATE":"2022-02-21","BSTAR":"-0.00005553300000"},{"OBJECT_NAME":"STARLINK-3450","MEAN_MOTION_DDOT":"0.0000000000000","OBJECT_TYPE":"PAYLOAD","CENTER_NAME":"EARTH","REV_AT_EPOCH":"130","TIME_SYSTEM":"UTC","INCLINATION":"53.2188","RA_OF_ASC_NODE":"38.5127","BSTAR":"0.00130450000000","LAUNCH_DATE":"2022-02-21","ECCENTRICITY":"0.00019080","ELEMENT_SET_NO":"999","COUNTRY_CODE":"US","OBJECT_ID":"2022-016W","EPHEMERIS_TYPE":"0","REF_FRAME":"TEME","SEMIMAJOR_AXIS":"6917.882","MEAN_ANOMALY":"61.0395","EPOCH":"2022-08-16T22:00:00.999936","FILE":"3538178","APOAPSIS":"541.067","SITE":"AFETR","TLE_LINE2":"2 51734  53.2188  38.5127 0001908  52.3905  61.0395 15.08839449  1306","MEAN_MOTION":"15.08839449","MEAN_MOTION_DOT":"0.00020534","DECAY_DATE":null,"PERIAPSIS":"538.427","ARG_OF_PERICENTER":"52.3905","CLASSIFICATION_TYPE":"U","PERIOD":"95.438","MEAN_ELEMENT_THEORY":"SGP4","NORAD_CAT_ID":"51734","RCS_SIZE":"LARGE","GP_ID":"210369646","TLE_LINE1":"1 51734U 22016W   22228.91667824  .00020534  00000-0  13045-2 0  9999"},{"TIME_SYSTEM":"UTC","OBJECT_TYPE":"PAYLOAD","REV_AT_EPOCH":"130","CENTER_NAME":"EARTH","MEAN_MOTION_DDOT":"0.0000000000000","OBJECT_NAME":"STARLINK-3517","RA_OF_ASC_NODE":"38.5224","INCLINATION":"53.2197","ECCENTRICITY":"0.00013850","LAUNCH_DATE":"2022-02-21","BSTAR":"0.00305610000000","MEAN_ANOMALY":"15.4879","SEMIMAJOR_AXIS":"6917.964","REF_FRAME":"TEME","EPOCH":"2022-08-16T22:00:00.999936","EPHEMERIS_TYPE":"0","COUNTRY_CODE":"US","ELEMENT_SET_NO":"999","OBJECT_ID":"2022-016X","TLE_LINE2":"2 51735  53.2197  38.5224 0001385  57.9476  15.4879 15.08812703  1302","SITE":"AFETR","APOAPSIS":"540.787","FILE":"3538178","PERIAPSIS":"538.871","DECAY_DATE":null,"MEAN_MOTION":"15.08812703","MEAN_MOTION_DOT":"0.00048649","NORAD_CAT_ID":"51735","MEAN_ELEMENT_THEORY":"SGP4","PERIOD":"95.439","ARG_OF_PERICENTER":"57.9476","CLASSIFICATION_TYPE":"U","TLE_LINE1":"1 51735U 22016X   22228.91667824  .00048649  00000-0  30561-2 0  9999","RCS_SIZE":"LARGE","GP_ID":"210368394"},{"MEAN_ANOMALY":"96.2526","SEMIMAJOR_AXIS":"6917.904","EPOCH":"2022-08-16T22:00:00.999936","REF_FRAME":"TEME","EPHEMERIS_TYPE":"0","OBJECT_ID":"2022-016Y","COUNTRY_CODE":"US","ELEMENT_SET_NO":"999","ECCENTRICITY":"0.00017890","LAUNCH_DATE":"2022-02-21","BSTAR":"0.00229180000000","INCLINATION":"53.2175","RA_OF_ASC_NODE":"38.5086","TIME_SYSTEM":"UTC","OBJECT_TYPE":"PAYLOAD","CENTER_NAME":"EARTH","REV_AT_EPOCH":"130","MEAN_MOTION_DDOT":"0.0000000000000","OBJECT_NAME":"STARLINK-3447","TLE_LINE1":"1 51736U 22016Y   22228.91667824  .00036367  00000-0  22918-2 0  9991","RCS_SIZE":"LARGE","GP_ID":"210368145","MEAN_ELEMENT_THEORY":"SGP4","NORAD_CAT_ID":"51736","PERIOD":"95.438","ARG_OF_PERICENTER":"57.1724","CLASSIFICATION_TYPE":"U","PERIAPSIS":"538.532","DECAY_DATE":null,"MEAN_MOTION":"15.08832165","MEAN_MOTION_DOT":"0.00036367","TLE_LINE2":"2 51736  53.2175  38.5086 0001789  57.1724  96.2526 15.08832165  1301","SITE":"AFETR","APOAPSIS":"541.007","FILE":"3538178"},{"DECAY_DATE":null,"PERIAPSIS":"538.806","MEAN_MOTION_DOT":"0.00050353","MEAN_MOTION":"15.08814289","TLE_LINE2":"2 51737  53.2178  38.5110 0001471  54.8466  38.6059 15.08814289  1306","APOAPSIS":"540.842","FILE":"3538178","SITE":"AFETR","TLE_LINE1":"1 51737U 22016Z   22228.91667824  .00050353  00000-0  31616-2 0  9998","GP_ID":"210369396","RCS_SIZE":"LARGE","NORAD_CAT_ID":"51737","MEAN_ELEMENT_THEORY":"SGP4","CLASSIFICATION_TYPE":"U","ARG_OF_PERICENTER":"54.8466","PERIOD":"95.439","RA_OF_ASC_NODE":"38.5110","INCLINATION":"53.2178","CENTER_NAME":"EARTH","REV_AT_EPOCH":"130","OBJECT_TYPE":"PAYLOAD","TIME_SYSTEM":"UTC","OBJECT_NAME":"STARLINK-3509","MEAN_MOTION_DDOT":"0.0000000000000","EPHEMERIS_TYPE":"0","SEMIMAJOR_AXIS":"6917.959","REF_FRAME":"TEME","EPOCH":"2022-08-16T22:00:00.999936","MEAN_ANOMALY":"38.6059","ELEMENT_SET_NO":"999","COUNTRY_CODE":"US","OBJECT_ID":"2022-016Z","LAUNCH_DATE":"2022-02-21","ECCENTRICITY":"0.00014710","BSTAR":"0.00316160000000"}];
